[{"OBJECT_NAME":"CONTINUUM-1","OBJECT_ID":"2023-001AN","EPOCH":"2026-03-09T23:17:35.458656","MEAN_MOTION":15.27981258,"ECCENTRICITY":0.00109493,"INCLINATION":97.3456,"RA_OF_ASC_NODE":133.3964,"ARG_OF_PERICENTER":60.1976,"MEAN_ANOMALY":300.0351,"EPHEMERIS_TYPE":0,"CLASSIFICATION_TYPE":"U","NORAD_CAT_ID":55045,"ELEMENT_SET_NO":999,"REV_AT_EPOCH":17709,"BSTAR":0.00052859897,"MEAN_MOTION_DOT":0.00014395,"MEAN_MOTION_DDOT":0},{"OBJECT_NAME":"STARLINK-35646","OBJECT_ID":"2025-281M","EPOCH":"2026-03-09T02:13:05.380896","MEAN_MOTION":15.27595831,"ECCENTRICITY":0.00019534,"INCLINATION":43.0034,"RA_OF_ASC_NODE":346.8924,"ARG_OF_PERICENTER":259.9846,"MEAN_ANOMALY":100.0785,"EPHEMERIS_TYPE":0,"CLASSIFICATION_TYPE":"U","NORAD_CAT_ID":66859,"ELEMENT_SET_NO":999,"REV_AT_EPOCH":1609,"BSTAR":0.0015373956,"MEAN_MOTION_DOT":0.00042308,"MEAN_MOTION_DDOT":0}]
